H1 CPF  1  DLR 2022 06 13 10  6642 technosat            
H2  1704205 6203    42829 2022 06 13 00 00 00 2022 06 20 00 00 00    60 1 1  0 0 0
H9
10 0 59748   7200.000000  0       -181318.333       5826359.844      -3820523.396
10 0 59748   7260.000000  0        -92076.064       6061568.842      -3437317.294
10 0 59748   7320.000000  0          -502.310       6270419.873      -3039508.443
10 0 59748   7380.000000  0         92781.958       6451997.138      -2628778.527
10 0 59748   7440.000000  0        187140.547       6605505.344      -2206866.779
10 0 59748   7500.000000  0        281925.837       6730273.657      -1775562.556
10 0 59748   7560.000000  0        376482.685       6825759.069      -1336697.607
10 0 59748   7620.000000  0        470152.394       6891549.129       -892138.099
10 0 59748   7680.000000  0        562276.729       6927364.061       -443776.444
10 0 59748   7740.000000  0        652201.974       6933058.239          6477.055
10 0 59748   7800.000000  0        739282.990       6908620.968        456702.698
10 0 59748   7860.000000  0        822887.221       6854176.553        904979.924
10 0 59748   7920.000000  0        902398.628       6769983.716       1349395.839
10 0 59748   7980.000000  0        977221.499       6656434.372       1788053.737
10 0 59748   8040.000000  0       1046784.164       6514051.678       2219081.548
10 0 59748   8100.000000  0       1110542.579       6343487.514       2640640.051
10 0 59748   8160.000000  0       1167983.826       6145519.429       3050931.061
10 0 59748   8220.000000  0       1218629.367       5921046.786       3448205.500
10 0 59748   8280.000000  0       1262038.081       5671086.222       3830770.939
10 0 59748   8340.000000  0       1297809.299       5396766.938       4196998.900
10 0 59748   8400.000000  0       1325585.490       5099325.253       4545332.255
10 0 59748   8460.000000  0       1345054.429       4780098.350       4874291.942
10 0 59748   8520.000000  0       1355951.319       4440517.809       5182483.048
10 0 59748   8580.000000  0       1358060.705       4082102.795       5468600.538
10 0 59748   8640.000000  0       1351218.063       3706453.025       5731434.618
10 0 59748   8700.000000  0       1335311.102       3315241.332       5969875.798
10 0 59748   8760.000000  0       1310280.743       2910205.883       6182919.400
10 0 59748   8820.000000  0       1276121.818       2493142.199       6369669.576
10 0 59748   8880.000000  0       1232883.492       2065894.985       6529342.872
10 0 59748   8940.000000  0       1180669.393       1630349.738       6661271.306
10 0 59748   9000.000000  0       1119637.423       1188424.252       6764904.857
10 0 59748   9060.000000  0       1049999.296        742060.121       6839813.478
10 0 59748   9120.000000  0        972019.788        293214.223       6885688.663
10 0 59748   9180.000000  0        886015.700       -156149.819       6902344.633
10 0 59748   9240.000000  0        792354.511       -604070.311       6889719.024
10 0 59748   9300.000000  0        691452.774      -1048596.089       6847872.960
10 0 59748   9360.000000  0        583774.233      -1487794.988       6776990.679
10 0 59748   9420.000000  0        469827.649      -1919762.226       6677378.672
10 0 59748   9480.000000  0        350164.403      -2342628.651       6549464.388
10 0 59748   9540.000000  0        225375.819      -2754568.923       6393794.405
10 0 59748   9600.000000  0         96090.290      -3153809.389       6211031.950
10 0 59748   9660.000000  0        -37029.772      -3538635.610       6001954.124
10 0 59748   9720.000000  0       -173291.242      -3907399.713       5767448.700
10 0 59748   9780.000000  0       -311973.748      -4258527.427       5508510.488
10 0 59748   9840.000000  0       -452333.296      -4590524.867       5226237.349
10 0 59748   9900.000000  0       -593606.127      -4901985.076       4921825.775
10 0 59748   9960.000000  0       -735012.738      -5191594.243       4596565.938
10 0 59748  10020.000000  0       -875762.026      -5458137.450       4251836.262
10 0 59748  10080.000000  0      -1015055.510      -5700503.943       3889097.590
10 0 59748  10140.000000  0      -1152091.652      -5917691.904       3509887.024
10 0 59748  10200.000000  0      -1286070.236      -6108812.749       3115811.432
10 0 59748  10260.000000  0      -1416196.757      -6273094.935       2708540.647
10 0 59748  10320.000000  0      -1541686.834      -6409887.261       2289800.404
10 0 59748  10380.000000  0      -1661770.689      -6518661.642       1861364.967
10 0 59748  10440.000000  0      -1775697.559      -6599015.228       1425049.425
10 0 59748  10500.000000  0      -1882739.958      -6650671.900        982701.867
10 0 59748  10560.000000  0      -1982197.864      -6673483.223        536195.411
10 0 59748  10620.000000  0      -2073402.794      -6667428.769         87420.108
10 0 59748  10680.000000  0      -2155721.725      -6632615.825       -361725.212
10 0 59748  10740.000000  0      -2228560.855      -6569278.511       -809341.123
10 0 59748  10800.000000  0      -2291369.175      -6477776.302      -1253535.770
10 0 59748  10860.000000  0      -2343641.846      -6358591.962      -1692432.977
10 0 59748  10920.000000  0      -2384923.343      -6212328.915      -2124180.287
10 0 59748  10980.000000  0      -2414810.356      -6039708.048      -2546956.859
10 0 59748  11040.000000  0      -2432954.415      -5841563.964      -2958981.222
10 0 59748  11100.000000  0      -2439064.234      -5618840.705      -3358518.779
10 0 59748  11160.000000  0      -2432907.757      -5372586.997      -3743889.057
10 0 59748  11220.000000  0      -2414313.904      -5103951.067      -4113472.661
10 0 59748  11280.000000  0      -2383174.006      -4814175.058      -4465717.899
10 0 59748  11340.000000  0      -2339442.946      -4504589.094      -4799147.105
10 0 59748  11400.000000  0      -2283139.974      -4176605.001      -5112362.591
10 0 59748  11460.000000  0      -2214349.229      -3831709.750      -5404052.260
10 0 59748  11520.000000  0      -2133219.931      -3471458.612      -5672994.848
10 0 59748  11580.000000  0      -2039966.263      -3097468.081      -5918064.772
10 0 59748  11640.000000  0      -1934866.921      -2711408.559      -6138236.582
10 0 59748  11700.000000  0      -1818264.322      -2314996.879      -6332588.951
10 0 59748  11760.000000  0      -1690563.529      -1909988.698      -6500308.213
10 0 59748  11820.000000  0      -1552230.891      -1498170.833      -6640691.493
10 0 59748  11880.000000  0      -1403792.396      -1081353.491      -6753149.413
10 0 59748  11940.000000  0      -1245831.743       -661362.478      -6837208.354
10 0 59748  12000.000000  0      -1078988.137       -240031.384      -6892512.307
10 0 59748  12060.000000  0       -903953.748        180806.195      -6918824.286
10 0 59748  12120.000000  0       -721470.922        599324.385      -6916027.341
10 0 59748  12180.000000  0       -532329.140       1013712.787      -6884125.137
10 0 59748  12240.000000  0       -337361.735       1422184.124      -6823242.007
10 0 59748  12300.000000  0       -137442.419       1822981.695      -6733622.658
10 0 59748  12360.000000  0         66518.481       2214386.855      -6615631.516
10 0 59748  12420.000000  0        273578.070       2594726.331      -6469751.541
10 0 59748  12480.000000  0        482765.151       2962379.373      -6296582.590
10 0 59748  12540.000000  0        693084.673       3315784.731      -6096839.219
10 0 59748  12600.000000  0        903522.298       3653447.287      -5871348.048
10 0 59748  12660.000000  0       1113049.172       3973944.489      -5621044.780
10 0 59748  12720.000000  0       1320626.851       4275932.541      -5346970.734
10 0 59748  12780.000000  0       1525212.363       4558152.303      -5050268.922
10 0 59748  12840.000000  0       1725763.395       4819434.877      -4732179.637
10 0 59748  12900.000000  0       1921243.546       5058706.812      -4394035.534
10 0 59748  12960.000000  0       2110627.620       5274994.822      -4037256.294
10 0 59748  13020.000000  0       2292906.944       5467430.128      -3663342.924
10 0 59748  13080.000000  0       2467094.701       5635252.372      -3273871.642
10 0 59748  13140.000000  0       2632231.243       5777813.043      -2870487.337
10 0 59748  13200.000000  0       2787389.356       5894578.393      -2454896.667
10 0 59748  13260.000000  0       2931679.415       5985131.799      -2028860.806
10 0 59748  13320.000000  0       3064254.404       6049175.589      -1594187.877
10 0 59748  13380.000000  0       3184314.769       6086532.273      -1152725.083
10 0 59748  13440.000000  0       3291113.048       6097145.153       -706350.624
10 0 59748  13500.000000  0       3383958.280       6081078.346       -256965.436
10 0 59748  13560.000000  0       3462220.144       6038516.194        193515.209
10 0 59748  13620.000000  0       3525332.813       5969762.056        643170.177
10 0 59748  13680.000000  0       3572798.537       5875236.540       1090080.969
10 0 59748  13740.000000  0       3604190.886       5755475.161       1532340.259
10 0 59748  13800.000000  0       3619157.610       5611125.409       1968060.374
10 0 59748  13860.000000  0       3617423.099       5442943.325       2395381.691
10 0 59748  13920.000000  0       3598790.480       5251789.500       2812480.985
10 0 59748  13980.000000  0       3563143.322       5038624.422       3217579.540
10 0 59748  14040.000000  0       3510446.875       4804503.357       3608950.872
10 0 59748  14100.000000  0       3440748.993       4550571.008       3984928.192
10 0 59748  14160.000000  0       3354180.626       4278055.763       4343911.808
10 0 59748  14220.000000  0       3250955.679       3988263.411       4684376.184
10 0 59748  14280.000000  0       3131370.424       3682570.471       5004876.357
10 0 59748  14340.000000  0       2995802.651       3362417.390       5304053.966
99
